REAL                    
1 64875U 25154G   26068.72233414  .00022901  00000+0  82904-3 0  9994
2 64875  97.4133 137.2581 0001853 118.5876 241.5550 15.28408058 34830
STARLINK-34774          
1 66485U 25263A   26068.17606973  .00031101  00000+0  11356-2 0  9991
2 66485  43.0043 353.3213 0001820 252.6515 107.4138 15.27561475 18828
